start=new Date('2022-06-10T00:00:00.000Z').valueOf();
sats=[{"TLE_LINE1":"1 48463U 21040AM  22160.85442843 -.00002222  00000-0 -13032-3 0  9993","CLASSIFICATION_TYPE":"U","MEAN_ELEMENT_THEORY":"SGP4","FILE":"3489040","MEAN_MOTION_DOT":"-0.00002222","MEAN_MOTION_DDOT":"0.0000000000000","SEMIMAJOR_AXIS":"6925.367","OBJECT_NAME":"STARLINK-2689","CENTER_NAME":"EARTH","APOAPSIS":"548.435","MEAN_ANOMALY":"299.7195","EPOCH":"2022-06-09T20:30:22.616352","ECCENTRICITY":"0.00017380","SITE":"AFETR","TIME_SYSTEM":"UTC","REV_AT_EPOCH":"6018","INCLINATION":"53.0545","REF_FRAME":"TEME","NORAD_CAT_ID":"48463","TLE_LINE2":"2 48463  53.0545 216.5703 0001738  60.3967 299.7195 15.06394117 60187","ELEMENT_SET_NO":"999","OBJECT_TYPE":"PAYLOAD","PERIOD":"95.593","RCS_SIZE":"LARGE","MEAN_MOTION":"15.06394117","GP_ID":"205780511","COUNTRY_CODE":"US","RA_OF_ASC_NODE":"216.5703","DECAY_DATE":null,"PERIAPSIS":"546.028","ARG_OF_PERICENTER":"60.3967","BSTAR":"-0.00013032000000","EPHEMERIS_TYPE":"0","OBJECT_ID":"2021-040AM","LAUNCH_DATE":"2021-05-09"},{"RCS_SIZE":"MEDIUM","COUNTRY_CODE":"US","GP_ID":"205780761","MEAN_MOTION":"15.06400086","RA_OF_ASC_NODE":"217.8539","DECAY_DATE":null,"PERIAPSIS":"546.127","REV_AT_EPOCH":"6013","INCLINATION":"53.0537","REF_FRAME":"TEME","NORAD_CAT_ID":"48464","TLE_LINE2":"2 48464  53.0537 217.8539 0001568  58.6560 301.4582 15.06400086 60139","ELEMENT_SET_NO":"999","OBJECT_TYPE":"PAYLOAD","PERIOD":"95.592","ARG_OF_PERICENTER":"58.6560","OBJECT_ID":"2021-040AN","BSTAR":"0.00005782300000","EPHEMERIS_TYPE":"0","LAUNCH_DATE":"2021-05-09","MEAN_MOTION_DOT":"0.00000580","MEAN_MOTION_DDOT":"0.0000000000000","TLE_LINE1":"1 48464U 21040AN  22160.56786566  .00000580  00000-0  57823-4 0  9995","CLASSIFICATION_TYPE":"U","FILE":"3489040","MEAN_ELEMENT_THEORY":"SGP4","EPOCH":"2022-06-09T13:37:43.593024","ECCENTRICITY":"0.00015680","SITE":"AFETR","TIME_SYSTEM":"UTC","SEMIMAJOR_AXIS":"6925.348","OBJECT_NAME":"STARLINK-2686","CENTER_NAME":"EARTH","MEAN_ANOMALY":"301.4582","APOAPSIS":"548.299"},{"ECCENTRICITY":"0.00013540","SITE":"AFETR","EPOCH":"2022-06-09T13:53:39.717888","TIME_SYSTEM":"UTC","SEMIMAJOR_AXIS":"6925.391","MEAN_ANOMALY":"301.1500","APOAPSIS":"548.193","CENTER_NAME":"EARTH","OBJECT_NAME":"STARLINK-2681","MEAN_MOTION_DOT":"-0.00001680","MEAN_MOTION_DDOT":"0.0000000000000","CLASSIFICATION_TYPE":"U","TLE_LINE1":"1 48465U 21040AP  22160.57893192 -.00001680  00000-0 -93964-4 0  9991","MEAN_ELEMENT_THEORY":"SGP4","FILE":"3489040","OBJECT_ID":"2021-040AP","BSTAR":"-0.00009396400000","EPHEMERIS_TYPE":"0","ARG_OF_PERICENTER":"58.9622","LAUNCH_DATE":"2021-05-09","COUNTRY_CODE":"US","GP_ID":"205781513","MEAN_MOTION":"15.06386277","RCS_SIZE":"LARGE","PERIAPSIS":"546.318","DECAY_DATE":null,"RA_OF_ASC_NODE":"217.8001","TLE_LINE2":"2 48465  53.0519 217.8001 0001354  58.9622 301.1500 15.06386277 60142","NORAD_CAT_ID":"48465","REF_FRAME":"TEME","REV_AT_EPOCH":"6014","INCLINATION":"53.0519","PERIOD":"95.593","OBJECT_TYPE":"PAYLOAD","ELEMENT_SET_NO":"999"},{"MEAN_ELEMENT_THEORY":"SGP4","FILE":"3488808","TLE_LINE1":"1 48466U 21040AQ  22160.56418730 -.00001423  00000-0 -76657-4 0  9997","CLASSIFICATION_TYPE":"U","MEAN_MOTION_DDOT":"0.0000000000000","MEAN_MOTION_DOT":"-0.00001423","CENTER_NAME":"EARTH","OBJECT_NAME":"STARLINK-2687","APOAPSIS":"548.477","MEAN_ANOMALY":"304.8766","SEMIMAJOR_AXIS":"6925.404","TIME_SYSTEM":"UTC","EPOCH":"2022-06-09T13:32:25.782720","SITE":"AFETR","ECCENTRICITY":"0.00017450","ELEMENT_SET_NO":"999","PERIOD":"95.593","OBJECT_TYPE":"PAYLOAD","REV_AT_EPOCH":"6141","INCLINATION":"53.0535","TLE_LINE2":"2 48466  53.0535 217.8701 0001745  55.2387 304.8766 15.06382072 61414","REF_FRAME":"TEME","NORAD_CAT_ID":"48466","RA_OF_ASC_NODE":"217.8701","DECAY_DATE":null,"PERIAPSIS":"546.060","COUNTRY_CODE":"US","GP_ID":"205754123","MEAN_MOTION":"15.06382072","RCS_SIZE":"LARGE","LAUNCH_DATE":"2021-05-09","OBJECT_ID":"2021-040AQ","BSTAR":"-0.00007665700000","EPHEMERIS_TYPE":"0","ARG_OF_PERICENTER":"55.2387"},{"APOAPSIS":"548.303","MEAN_ANOMALY":"299.0544","CENTER_NAME":"EARTH","OBJECT_NAME":"STARLINK-2659","SEMIMAJOR_AXIS":"6925.367","TIME_SYSTEM":"UTC","ECCENTRICITY":"0.00015460","SITE":"AFETR","EPOCH":"2022-06-09T20:31:43.607712","MEAN_ELEMENT_THEORY":"SGP4","FILE":"3489040","CLASSIFICATION_TYPE":"U","TLE_LINE1":"1 48467U 21040AR  22160.85536583 -.00001136  00000-0 -57404-4 0  9997","MEAN_MOTION_DDOT":"0.0000000000000","MEAN_MOTION_DOT":"-0.00001136","LAUNCH_DATE":"2021-05-09","BSTAR":"-0.00005740400000","OBJECT_ID":"2021-040AR","EPHEMERIS_TYPE":"0","ARG_OF_PERICENTER":"61.0600","PERIOD":"95.593","OBJECT_TYPE":"PAYLOAD","ELEMENT_SET_NO":"999","TLE_LINE2":"2 48467  53.0541 216.5619 0001546  61.0600 299.0544 15.06393935 60180","REF_FRAME":"TEME","NORAD_CAT_ID":"48467","REV_AT_EPOCH":"6018","INCLINATION":"53.0541","PERIAPSIS":"546.161","DECAY_DATE":null,"RA_OF_ASC_NODE":"216.5619","COUNTRY_CODE":"US","GP_ID":"205780011","MEAN_MOTION":"15.06393935","RCS_SIZE":"LARGE"},{"OBJECT_ID":"2021-040AS","BSTAR":"-0.00006446400000","EPHEMERIS_TYPE":"0","ARG_OF_PERICENTER":"66.1986","LAUNCH_DATE":"2021-05-09","COUNTRY_CODE":"US","GP_ID":"205780261","MEAN_MOTION":"15.06401060","RCS_SIZE":"LARGE","PERIAPSIS":"546.080","DECAY_DATE":null,"RA_OF_ASC_NODE":"217.8363","TLE_LINE2":"2 48468  53.0551 217.8363 0001632  66.1986 293.9174 15.06401060 60148","REF_FRAME":"TEME","NORAD_CAT_ID":"48468","INCLINATION":"53.0551","REV_AT_EPOCH":"6014","PERIOD":"95.592","OBJECT_TYPE":"PAYLOAD","ELEMENT_SET_NO":"999","ECCENTRICITY":"0.00016320","SITE":"AFETR","EPOCH":"2022-06-09T13:43:01.504416","TIME_SYSTEM":"UTC","SEMIMAJOR_AXIS":"6925.345","APOAPSIS":"548.341","MEAN_ANOMALY":"293.9174","CENTER_NAME":"EARTH","OBJECT_NAME":"STARLINK-2685","MEAN_MOTION_DOT":"-0.00001242","MEAN_MOTION_DDOT":"0.0000000000000","CLASSIFICATION_TYPE":"U","TLE_LINE1":"1 48468U 21040AS  22160.57154519 -.00001242  00000-0 -64464-4 0  9994","FILE":"3489040","MEAN_ELEMENT_THEORY":"SGP4"},{"LAUNCH_DATE":"2021-05-09","ARG_OF_PERICENTER":"88.1960","OBJECT_ID":"2021-040AT","BSTAR":"0.00004478200000","EPHEMERIS_TYPE":"0","OBJECT_TYPE":"PAYLOAD","PERIOD":"95.592","ELEMENT_SET_NO":"999","REF_FRAME":"TEME","NORAD_CAT_ID":"48469","TLE_LINE2":"2 48469  53.0526 216.5771 0001409  88.1960 271.9191 15.06395307 60183","REV_AT_EPOCH":"6018","INCLINATION":"53.0526","PERIAPSIS":"546.252","DECAY_DATE":null,"RA_OF_ASC_NODE":"216.5771","RCS_SIZE":"LARGE","GP_ID":"205781013","COUNTRY_CODE":"US","MEAN_MOTION":"15.06395307","APOAPSIS":"548.204","MEAN_ANOMALY":"271.9191","OBJECT_NAME":"STARLINK-2661","CENTER_NAME":"EARTH","SEMIMAJOR_AXIS":"6925.363","TIME_SYSTEM":"UTC","ECCENTRICITY":"0.00014090","SITE":"AFETR","EPOCH":"2022-06-09T20:26:25.075104","MEAN_ELEMENT_THEORY":"SGP4","FILE":"3489040","CLASSIFICATION_TYPE":"U","TLE_LINE1":"1 48469U 21040AT  22160.85167911  .00000386  00000-0  44782-4 0  9993","MEAN_MOTION_DDOT":"0.0000000000000","MEAN_MOTION_DOT":"0.00000386"},{"CLASSIFICATION_TYPE":"U","TLE_LINE1":"1 48470U 21040AU  22160.58261813 -.00001440  00000-0 -77839-4 0  9994","FILE":"3489040","MEAN_ELEMENT_THEORY":"SGP4","MEAN_MOTION_DOT":"-0.00001440","MEAN_MOTION_DDOT":"0.0000000000000","SEMIMAJOR_AXIS":"6925.404","APOAPSIS":"548.466","MEAN_ANOMALY":"311.6004","OBJECT_NAME":"STARLINK-2675","CENTER_NAME":"EARTH","SITE":"AFETR","ECCENTRICITY":"0.00017280","EPOCH":"2022-06-09T13:58:58.206432","TIME_SYSTEM":"UTC","REF_FRAME":"TEME","NORAD_CAT_ID":"48470","TLE_LINE2":"2 48470  53.0538 217.7896 0001728  48.5133 311.6004 15.06381911 60131","REV_AT_EPOCH":"6013","INCLINATION":"53.0538","OBJECT_TYPE":"PAYLOAD","PERIOD":"95.593","ELEMENT_SET_NO":"999","RCS_SIZE":"LARGE","GP_ID":"205781764","MEAN_MOTION":"15.06381911","COUNTRY_CODE":"US","DECAY_DATE":null,"PERIAPSIS":"546.072","RA_OF_ASC_NODE":"217.7896","ARG_OF_PERICENTER":"48.5133","EPHEMERIS_TYPE":"0","BSTAR":"-0.00007783900000","OBJECT_ID":"2021-040AU","LAUNCH_DATE":"2021-05-09"},{"LAUNCH_DATE":"2021-05-09","ARG_OF_PERICENTER":"45.1272","EPHEMERIS_TYPE":"0","BSTAR":"-0.00010481000000","OBJECT_ID":"2021-040AV","ELEMENT_SET_NO":"999","OBJECT_TYPE":"PAYLOAD","PERIOD":"95.593","INCLINATION":"53.0531","REV_AT_EPOCH":"6013","NORAD_CAT_ID":"48471","REF_FRAME":"TEME","TLE_LINE2":"2 48471  53.0531 217.8112 0001846  45.1272 314.9867 15.06392529 60135","RA_OF_ASC_NODE":"217.8112","PERIAPSIS":"545.958","DECAY_DATE":null,"RCS_SIZE":"LARGE","GP_ID":"205780512","COUNTRY_CODE":"US","MEAN_MOTION":"15.06392529","OBJECT_NAME":"STARLINK-2684","CENTER_NAME":"EARTH","MEAN_ANOMALY":"314.9867","APOAPSIS":"548.515","SEMIMAJOR_AXIS":"6925.371","TIME_SYSTEM":"UTC","EPOCH":"2022-06-09T13:48:20.894112","ECCENTRICITY":"0.00018460","SITE":"AFETR","FILE":"3489040","MEAN_ELEMENT_THEORY":"SGP4","TLE_LINE1":"1 48471U 21040AV  22160.57524183 -.00001842  00000-0 -10481-3 0  9991","CLASSIFICATION_TYPE":"U","MEAN_MOTION_DDOT":"0.0000000000000","MEAN_MOTION_DOT":"-0.00001842"},{"RA_OF_ASC_NODE":"216.4097","PERIAPSIS":"546.160","DECAY_DATE":null,"RCS_SIZE":"LARGE","COUNTRY_CODE":"US","GP_ID":"205780762","MEAN_MOTION":"15.06389533","ELEMENT_SET_NO":"999","OBJECT_TYPE":"PAYLOAD","PERIOD":"95.593","INCLINATION":"53.0562","REV_AT_EPOCH":"6017","REF_FRAME":"TEME","NORAD_CAT_ID":"48472","TLE_LINE2":"2 48472  53.0562 216.4097 0001567  64.2863 295.8287 15.06389533 60173","LAUNCH_DATE":"2021-05-09","ARG_OF_PERICENTER":"64.2863","EPHEMERIS_TYPE":"0","BSTAR":"-0.00007679200000","OBJECT_ID":"2021-040AW","MEAN_MOTION_DDOT":"0.0000000000000","MEAN_MOTION_DOT":"-0.00001425","MEAN_ELEMENT_THEORY":"SGP4","FILE":"3489040","TLE_LINE1":"1 48472U 21040AW  22160.88854752 -.00001425  00000-0 -76792-4 0  9999","CLASSIFICATION_TYPE":"U","TIME_SYSTEM":"UTC","EPOCH":"2022-06-09T21:19:30.505728","SITE":"AFETR","ECCENTRICITY":"0.00015670","OBJECT_NAME":"STARLINK-2722","CENTER_NAME":"EARTH","MEAN_ANOMALY":"295.8287","APOAPSIS":"548.331","SEMIMAJOR_AXIS":"6925.381"}];
